{"type":"FeatureCollection","features":[{"type":"Feature","properties":{"Id":0,"Name":"Zona Tsunami 1","Deskription":"tsunami ende"},"geometry":{"type":"Polygon","coordinates":[[[121.630767,-8.873468],[121.634556,-8.866724],[121.639345,-8.856298],[121.643274,-8.847324],[121.643211,-8.845732],[121.642394,-8.843397],[121.640955,-8.838808],[121.638704,-8.836709],[121.63276,-8.833023],[121.625377,-8.83016],[121.619714,-8.829203],[121.612657,-8.826681],[121.608061,-8.82424],[121.595861,-8.812203],[121.584438,-8.802029],[121.568346,-8.797308],[121.546361,-8.806641],[121.630767,-8.873468]]]}},{"type":"Feature","properties":{"Name":"Zona  Tsunami 2","Deskription":"zona tsunami 2"},"geometry":{"type":"Polygon","coordinates":[[[121.661134,-8.854652],[121.661996,-8.859562],[121.661337,-8.864892],[121.732739,-8.876229],[121.731011,-8.872695],[121.724241,-8.864356],[121.710657,-8.855471],[121.701005,-8.852079],[121.687963,-8.846177],[121.676564,-8.846145],[121.670561,-8.847984],[121.661134,-8.854652]]]}}]}