{"type":"FeatureCollection","features":[{"type":"Feature","properties":{"@circle":{"type":"Mercator","center":[121.6435546,-8.8543803]},"Name":"Hambatan Lahar"},"geometry":{"type":"Polygon","coordinates":[[[121.644256,-8.85438],[121.644254,-8.854337],[121.64425,-8.854293],[121.644243,-8.85425],[121.644234,-8.854208],[121.644222,-8.854166],[121.644207,-8.854125],[121.644189,-8.854085],[121.644169,-8.854046],[121.644147,-8.854009],[121.644122,-8.853973],[121.644095,-8.853939],[121.644066,-8.853906],[121.644035,-8.853875],[121.644002,-8.853846],[121.643967,-8.85382],[121.64393,-8.853795],[121.643892,-8.853773],[121.643853,-8.853753],[121.643813,-8.853736],[121.643771,-8.853721],[121.643729,-8.853709],[121.643686,-8.8537],[121.643642,-8.853693],[121.643599,-8.853689],[121.643555,-8.853687],[121.643511,-8.853689],[121.643467,-8.853693],[121.643423,-8.8537],[121.64338,-8.853709],[121.643338,-8.853721],[121.643296,-8.853736],[121.643256,-8.853753],[121.643217,-8.853773],[121.643179,-8.853795],[121.643142,-8.85382],[121.643108,-8.853846],[121.643074,-8.853875],[121.643043,-8.853906],[121.643014,-8.853939],[121.642987,-8.853973],[121.642962,-8.854009],[121.64294,-8.854046],[121.64292,-8.854085],[121.642902,-8.854125],[121.642888,-8.854166],[121.642875,-8.854208],[121.642866,-8.85425],[121.642859,-8.854293],[121.642855,-8.854337],[121.642853,-8.85438],[121.642855,-8.854424],[121.642859,-8.854467],[121.642866,-8.85451],[121.642875,-8.854553],[121.642888,-8.854594],[121.642902,-8.854635],[121.64292,-8.854675],[121.64294,-8.854714],[121.642962,-8.854752],[121.642987,-8.854788],[121.643014,-8.854822],[121.643043,-8.854855],[121.643074,-8.854885],[121.643108,-8.854914],[121.643142,-8.854941],[121.643179,-8.854965],[121.643217,-8.854988],[121.643256,-8.855007],[121.643296,-8.855025],[121.643338,-8.855039],[121.64338,-8.855051],[121.643423,-8.855061],[121.643467,-8.855068],[121.643511,-8.855072],[121.643555,-8.855073],[121.643599,-8.855072],[121.643642,-8.855068],[121.643686,-8.855061],[121.643729,-8.855051],[121.643771,-8.855039],[121.643813,-8.855025],[121.643853,-8.855007],[121.643892,-8.854988],[121.64393,-8.854965],[121.643967,-8.854941],[121.644002,-8.854914],[121.644035,-8.854885],[121.644066,-8.854855],[121.644095,-8.854822],[121.644122,-8.854788],[121.644147,-8.854752],[121.644169,-8.854714],[121.644189,-8.854675],[121.644207,-8.854635],[121.644222,-8.854594],[121.644234,-8.854553],[121.644243,-8.85451],[121.64425,-8.854467],[121.644256,-8.85438]]]}},{"type":"Feature","properties":{"@circle":{"type":"Mercator","center":[121.6447351,-8.848361]},"Name":"Macet"},"geometry":{"type":"Polygon","coordinates":[[[121.645478,-8.848361],[121.645477,-8.848315],[121.645472,-8.848269],[121.645465,-8.848223],[121.645455,-8.848178],[121.645442,-8.848134],[121.645426,-8.848091],[121.645407,-8.848048],[121.645386,-8.848007],[121.645362,-8.847968],[121.645336,-8.847929],[121.645308,-8.847893],[121.645277,-8.847858],[121.645244,-8.847826],[121.645209,-8.847795],[121.645172,-8.847767],[121.645133,-8.847741],[121.645093,-8.847718],[121.645051,-8.847697],[121.645009,-8.847678],[121.644965,-8.847663],[121.64492,-8.84765],[121.644874,-8.84764],[121.644828,-8.847633],[121.644782,-8.847628],[121.644735,-8.847627],[121.644688,-8.847628],[121.644642,-8.847633],[121.644596,-8.84764],[121.64455,-8.84765],[121.644506,-8.847663],[121.644462,-8.847678],[121.644419,-8.847697],[121.644377,-8.847718],[121.644337,-8.847741],[121.644298,-8.847767],[121.644262,-8.847795],[121.644227,-8.847826],[121.644194,-8.847858],[121.644163,-8.847893],[121.644134,-8.847929],[121.644108,-8.847968],[121.644084,-8.848007],[121.644063,-8.848048],[121.644044,-8.848091],[121.644028,-8.848134],[121.644015,-8.848178],[121.644005,-8.848223],[121.643998,-8.848269],[121.643994,-8.848315],[121.643992,-8.848361],[121.643994,-8.848407],[121.643998,-8.848453],[121.644005,-8.848499],[121.644015,-8.848544],[121.644028,-8.848588],[121.644044,-8.848631],[121.644063,-8.848674],[121.644084,-8.848715],[121.644108,-8.848754],[121.644134,-8.848793],[121.644163,-8.848829],[121.644194,-8.848864],[121.644227,-8.848896],[121.644262,-8.848927],[121.644298,-8.848955],[121.644337,-8.848981],[121.644377,-8.849004],[121.644419,-8.849025],[121.644462,-8.849044],[121.644506,-8.849059],[121.64455,-8.849072],[121.644596,-8.849082],[121.644642,-8.849089],[121.644688,-8.849094],[121.644735,-8.849095],[121.644782,-8.849094],[121.644828,-8.849089],[121.644874,-8.849082],[121.64492,-8.849072],[121.644965,-8.849059],[121.645009,-8.849044],[121.645051,-8.849025],[121.645093,-8.849004],[121.645133,-8.848981],[121.645172,-8.848955],[121.645209,-8.848927],[121.645244,-8.848896],[121.645277,-8.848864],[121.645308,-8.848829],[121.645336,-8.848793],[121.645362,-8.848754],[121.645386,-8.848715],[121.645407,-8.848674],[121.645426,-8.848631],[121.645442,-8.848588],[121.645455,-8.848544],[121.645465,-8.848499],[121.645472,-8.848453],[121.645478,-8.848361]]]}},{"type":"Feature","properties":{"@circle":{"type":"Mercator","center":[121.6502603,-8.8399308]},"Name":"Jalan Sempit"},"geometry":{"type":"Polygon","coordinates":[[[121.650875,-8.839931],[121.650874,-8.839893],[121.65087,-8.839855],[121.650864,-8.839817],[121.650856,-8.83978],[121.650845,-8.839743],[121.650832,-8.839707],[121.650816,-8.839672],[121.650799,-8.839638],[121.650779,-8.839605],[121.650758,-8.839574],[121.650734,-8.839544],[121.650708,-8.839515],[121.650681,-8.839488],[121.650652,-8.839463],[121.650622,-8.839439],[121.65059,-8.839418],[121.650556,-8.839398],[121.650522,-8.839381],[121.650487,-8.839366],[121.65045,-8.839353],[121.650413,-8.839342],[121.650375,-8.839334],[121.650337,-8.839328],[121.650299,-8.839325],[121.65026,-8.839323],[121.650222,-8.839325],[121.650183,-8.839328],[121.650145,-8.839334],[121.650107,-8.839342],[121.65007,-8.839353],[121.650034,-8.839366],[121.649999,-8.839381],[121.649964,-8.839398],[121.649931,-8.839418],[121.649899,-8.839439],[121.649868,-8.839463],[121.649839,-8.839488],[121.649812,-8.839515],[121.649787,-8.839544],[121.649763,-8.839574],[121.649741,-8.839605],[121.649722,-8.839638],[121.649704,-8.839672],[121.649689,-8.839707],[121.649676,-8.839743],[121.649665,-8.83978],[121.649656,-8.839817],[121.64965,-8.839855],[121.649647,-8.839893],[121.649646,-8.839931],[121.649647,-8.839969],[121.64965,-8.840007],[121.649656,-8.840045],[121.649665,-8.840082],[121.649676,-8.840118],[121.649689,-8.840154],[121.649704,-8.840189],[121.649722,-8.840223],[121.649741,-8.840256],[121.649763,-8.840288],[121.649787,-8.840318],[121.649812,-8.840347],[121.649839,-8.840374],[121.649868,-8.840399],[121.649899,-8.840422],[121.649931,-8.840444],[121.649964,-8.840463],[121.649999,-8.84048],[121.650034,-8.840496],[121.65007,-8.840508],[121.650107,-8.840519],[121.650145,-8.840527],[121.650183,-8.840533],[121.650222,-8.840537],[121.65026,-8.840538],[121.650299,-8.840537],[121.650337,-8.840533],[121.650375,-8.840527],[121.650413,-8.840519],[121.65045,-8.840508],[121.650487,-8.840496],[121.650522,-8.84048],[121.650556,-8.840463],[121.65059,-8.840444],[121.650622,-8.840422],[121.650652,-8.840399],[121.650681,-8.840374],[121.650708,-8.840347],[121.650734,-8.840318],[121.650758,-8.840288],[121.650779,-8.840256],[121.650799,-8.840223],[121.650816,-8.840189],[121.650832,-8.840154],[121.650845,-8.840118],[121.650856,-8.840082],[121.650864,-8.840045],[121.65087,-8.840007],[121.650875,-8.839931]]]}},{"type":"Feature","properties":{"@circle":{"type":"Mercator","center":[121.6470648,-8.8456391]},"Name":"Tanjakan"},"geometry":{"type":"Polygon","coordinates":[[[121.647859,-8.845639],[121.647857,-8.84559],[121.647853,-8.845541],[121.647845,-8.845492],[121.647834,-8.845444],[121.64782,-8.845397],[121.647803,-8.84535],[121.647783,-8.845305],[121.647761,-8.845261],[121.647735,-8.845219],[121.647707,-8.845178],[121.647677,-8.845139],[121.647644,-8.845102],[121.647608,-8.845067],[121.647571,-8.845035],[121.647532,-8.845004],[121.64749,-8.844977],[121.647447,-8.844951],[121.647403,-8.844929],[121.647357,-8.84491],[121.64731,-8.844893],[121.647262,-8.844879],[121.647214,-8.844868],[121.647164,-8.844861],[121.647115,-8.844856],[121.647065,-8.844854],[121.647015,-8.844856],[121.646965,-8.844861],[121.646916,-8.844868],[121.646867,-8.844879],[121.646819,-8.844893],[121.646772,-8.84491],[121.646727,-8.844929],[121.646682,-8.844951],[121.646639,-8.844977],[121.646598,-8.845004],[121.646559,-8.845035],[121.646521,-8.845067],[121.646486,-8.845102],[121.646453,-8.845139],[121.646422,-8.845178],[121.646394,-8.845219],[121.646369,-8.845261],[121.646346,-8.845305],[121.646326,-8.84535],[121.64631,-8.845397],[121.646296,-8.845444],[121.646285,-8.845492],[121.646277,-8.845541],[121.646272,-8.84559],[121.646271,-8.845639],[121.646272,-8.845688],[121.646277,-8.845737],[121.646285,-8.845786],[121.646296,-8.845834],[121.64631,-8.845882],[121.646326,-8.845928],[121.646346,-8.845973],[121.646369,-8.846017],[121.646394,-8.84606],[121.646422,-8.8461],[121.646453,-8.846139],[121.646486,-8.846176],[121.646521,-8.846211],[121.646559,-8.846244],[121.646598,-8.846274],[121.646639,-8.846302],[121.646682,-8.846327],[121.646727,-8.846349],[121.646772,-8.846369],[121.646819,-8.846385],[121.646867,-8.846399],[121.646916,-8.84641],[121.646965,-8.846418],[121.647015,-8.846422],[121.647065,-8.846424],[121.647115,-8.846422],[121.647164,-8.846418],[121.647214,-8.84641],[121.647262,-8.846399],[121.64731,-8.846385],[121.647357,-8.846369],[121.647403,-8.846349],[121.647447,-8.846327],[121.64749,-8.846302],[121.647532,-8.846274],[121.647571,-8.846244],[121.647608,-8.846211],[121.647644,-8.846176],[121.647677,-8.846139],[121.647707,-8.8461],[121.647735,-8.84606],[121.647761,-8.846017],[121.647783,-8.845973],[121.647803,-8.845928],[121.64782,-8.845882],[121.647834,-8.845834],[121.647845,-8.845786],[121.647853,-8.845737],[121.647859,-8.845639]]]}}]}