{"type":"FeatureCollection","features":[{"type":"Feature","properties":{"@circle":{"type":"Mercator","center":[121.6435546,-8.8543803]},"Name":"Hambatan Lahar"},"geometry":{"type":"Polygon","coordinates":[[[121.644256,-8.85438],[121.644254,-8.854337],[121.64425,-8.854293],[121.644243,-8.85425],[121.644234,-8.854208],[121.644222,-8.854166],[121.644207,-8.854125],[121.644189,-8.854085],[121.644169,-8.854046],[121.644147,-8.854009],[121.644122,-8.853973],[121.644095,-8.853939],[121.644066,-8.853906],[121.644035,-8.853875],[121.644002,-8.853846],[121.643967,-8.85382],[121.64393,-8.853795],[121.643892,-8.853773],[121.643853,-8.853753],[121.643813,-8.853736],[121.643771,-8.853721],[121.643729,-8.853709],[121.643686,-8.8537],[121.643642,-8.853693],[121.643599,-8.853689],[121.643555,-8.853687],[121.643511,-8.853689],[121.643467,-8.853693],[121.643423,-8.8537],[121.64338,-8.853709],[121.643338,-8.853721],[121.643296,-8.853736],[121.643256,-8.853753],[121.643217,-8.853773],[121.643179,-8.853795],[121.643142,-8.85382],[121.643108,-8.853846],[121.643074,-8.853875],[121.643043,-8.853906],[121.643014,-8.853939],[121.642987,-8.853973],[121.642962,-8.854009],[121.64294,-8.854046],[121.64292,-8.854085],[121.642902,-8.854125],[121.642888,-8.854166],[121.642875,-8.854208],[121.642866,-8.85425],[121.642859,-8.854293],[121.642855,-8.854337],[121.642853,-8.85438],[121.642855,-8.854424],[121.642859,-8.854467],[121.642866,-8.85451],[121.642875,-8.854553],[121.642888,-8.854594],[121.642902,-8.854635],[121.64292,-8.854675],[121.64294,-8.854714],[121.642962,-8.854752],[121.642987,-8.854788],[121.643014,-8.854822],[121.643043,-8.854855],[121.643074,-8.854885],[121.643108,-8.854914],[121.643142,-8.854941],[121.643179,-8.854965],[121.643217,-8.854988],[121.643256,-8.855007],[121.643296,-8.855025],[121.643338,-8.855039],[121.64338,-8.855051],[121.643423,-8.855061],[121.643467,-8.855068],[121.643511,-8.855072],[121.643555,-8.855073],[121.643599,-8.855072],[121.643642,-8.855068],[121.643686,-8.855061],[121.643729,-8.855051],[121.643771,-8.855039],[121.643813,-8.855025],[121.643853,-8.855007],[121.643892,-8.854988],[121.64393,-8.854965],[121.643967,-8.854941],[121.644002,-8.854914],[121.644035,-8.854885],[121.644066,-8.854855],[121.644095,-8.854822],[121.644122,-8.854788],[121.644147,-8.854752],[121.644169,-8.854714],[121.644189,-8.854675],[121.644207,-8.854635],[121.644222,-8.854594],[121.644234,-8.854553],[121.644243,-8.85451],[121.64425,-8.854467],[121.644256,-8.85438]]]}},{"type":"Feature","properties":{"@circle":{"type":"Mercator","center":[121.6447351,-8.848361]},"Name":"Macet"},"geometry":{"type":"Polygon","coordinates":[[[121.645478,-8.848361],[121.645477,-8.848315],[121.645472,-8.848269],[121.645465,-8.848223],[121.645455,-8.848178],[121.645442,-8.848134],[121.645426,-8.848091],[121.645407,-8.848048],[121.645386,-8.848007],[121.645362,-8.847968],[121.645336,-8.847929],[121.645308,-8.847893],[121.645277,-8.847858],[121.645244,-8.847826],[121.645209,-8.847795],[121.645172,-8.847767],[121.645133,-8.847741],[121.645093,-8.847718],[121.645051,-8.847697],[121.645009,-8.847678],[121.644965,-8.847663],[121.64492,-8.84765],[121.644874,-8.84764],[121.644828,-8.847633],[121.644782,-8.847628],[121.644735,-8.847627],[121.644688,-8.847628],[121.644642,-8.847633],[121.644596,-8.84764],[121.64455,-8.84765],[121.644506,-8.847663],[121.644462,-8.847678],[121.644419,-8.847697],[121.644377,-8.847718],[121.644337,-8.847741],[121.644298,-8.847767],[121.644262,-8.847795],[121.644227,-8.847826],[121.644194,-8.847858],[121.644163,-8.847893],[121.644134,-8.847929],[121.644108,-8.847968],[121.644084,-8.848007],[121.644063,-8.848048],[121.644044,-8.848091],[121.644028,-8.848134],[121.644015,-8.848178],[121.644005,-8.848223],[121.643998,-8.848269],[121.643994,-8.848315],[121.643992,-8.848361],[121.643994,-8.848407],[121.643998,-8.848453],[121.644005,-8.848499],[121.644015,-8.848544],[121.644028,-8.848588],[121.644044,-8.848631],[121.644063,-8.848674],[121.644084,-8.848715],[121.644108,-8.848754],[121.644134,-8.848793],[121.644163,-8.848829],[121.644194,-8.848864],[121.644227,-8.848896],[121.644262,-8.848927],[121.644298,-8.848955],[121.644337,-8.848981],[121.644377,-8.849004],[121.644419,-8.849025],[121.644462,-8.849044],[121.644506,-8.849059],[121.64455,-8.849072],[121.644596,-8.849082],[121.644642,-8.849089],[121.644688,-8.849094],[121.644735,-8.849095],[121.644782,-8.849094],[121.644828,-8.849089],[121.644874,-8.849082],[121.64492,-8.849072],[121.644965,-8.849059],[121.645009,-8.849044],[121.645051,-8.849025],[121.645093,-8.849004],[121.645133,-8.848981],[121.645172,-8.848955],[121.645209,-8.848927],[121.645244,-8.848896],[121.645277,-8.848864],[121.645308,-8.848829],[121.645336,-8.848793],[121.645362,-8.848754],[121.645386,-8.848715],[121.645407,-8.848674],[121.645426,-8.848631],[121.645442,-8.848588],[121.645455,-8.848544],[121.645465,-8.848499],[121.645472,-8.848453],[121.645478,-8.848361]]]}},{"type":"Feature","properties":{"@circle":{"type":"Mercator","center":[121.6502603,-8.8399308]},"Name":"Jalan Sempit"},"geometry":{"type":"Polygon","coordinates":[[[121.650875,-8.839931],[121.650874,-8.839893],[121.65087,-8.839855],[121.650864,-8.839817],[121.650856,-8.83978],[121.650845,-8.839743],[121.650832,-8.839707],[121.650816,-8.839672],[121.650799,-8.839638],[121.650779,-8.839605],[121.650758,-8.839574],[121.650734,-8.839544],[121.650708,-8.839515],[121.650681,-8.839488],[121.650652,-8.839463],[121.650622,-8.839439],[121.65059,-8.839418],[121.650556,-8.839398],[121.650522,-8.839381],[121.650487,-8.839366],[121.65045,-8.839353],[121.650413,-8.839342],[121.650375,-8.839334],[121.650337,-8.839328],[121.650299,-8.839325],[121.65026,-8.839323],[121.650222,-8.839325],[121.650183,-8.839328],[121.650145,-8.839334],[121.650107,-8.839342],[121.65007,-8.839353],[121.650034,-8.839366],[121.649999,-8.839381],[121.649964,-8.839398],[121.649931,-8.839418],[121.649899,-8.839439],[121.649868,-8.839463],[121.649839,-8.839488],[121.649812,-8.839515],[121.649787,-8.839544],[121.649763,-8.839574],[121.649741,-8.839605],[121.649722,-8.839638],[121.649704,-8.839672],[121.649689,-8.839707],[121.649676,-8.839743],[121.649665,-8.83978],[121.649656,-8.839817],[121.64965,-8.839855],[121.649647,-8.839893],[121.649646,-8.839931],[121.649647,-8.839969],[121.64965,-8.840007],[121.649656,-8.840045],[121.649665,-8.840082],[121.649676,-8.840118],[121.649689,-8.840154],[121.649704,-8.840189],[121.649722,-8.840223],[121.649741,-8.840256],[121.649763,-8.840288],[121.649787,-8.840318],[121.649812,-8.840347],[121.649839,-8.840374],[121.649868,-8.840399],[121.649899,-8.840422],[121.649931,-8.840444],[121.649964,-8.840463],[121.649999,-8.84048],[121.650034,-8.840496],[121.65007,-8.840508],[121.650107,-8.840519],[121.650145,-8.840527],[121.650183,-8.840533],[121.650222,-8.840537],[121.65026,-8.840538],[121.650299,-8.840537],[121.650337,-8.840533],[121.650375,-8.840527],[121.650413,-8.840519],[121.65045,-8.840508],[121.650487,-8.840496],[121.650522,-8.84048],[121.650556,-8.840463],[121.65059,-8.840444],[121.650622,-8.840422],[121.650652,-8.840399],[121.650681,-8.840374],[121.650708,-8.840347],[121.650734,-8.840318],[121.650758,-8.840288],[121.650779,-8.840256],[121.650799,-8.840223],[121.650816,-8.840189],[121.650832,-8.840154],[121.650845,-8.840118],[121.650856,-8.840082],[121.650864,-8.840045],[121.65087,-8.840007],[121.650875,-8.839931]]]}},{"type":"Feature","properties":{"@circle":{"type":"Mercator","center":[121.6470648,-8.8456391]},"Name":"Tanjakan"},"geometry":{"type":"Polygon","coordinates":[[[121.647859,-8.845639],[121.647857,-8.84559],[121.647853,-8.845541],[121.647845,-8.845492],[121.647834,-8.845444],[121.64782,-8.845397],[121.647803,-8.84535],[121.647783,-8.845305],[121.647761,-8.845261],[121.647735,-8.845219],[121.647707,-8.845178],[121.647677,-8.845139],[121.647644,-8.845102],[121.647608,-8.845067],[121.647571,-8.845035],[121.647532,-8.845004],[121.64749,-8.844977],[121.647447,-8.844951],[121.647403,-8.844929],[121.647357,-8.84491],[121.64731,-8.844893],[121.647262,-8.844879],[121.647214,-8.844868],[121.647164,-8.844861],[121.647115,-8.844856],[121.647065,-8.844854],[121.647015,-8.844856],[121.646965,-8.844861],[121.646916,-8.844868],[121.646867,-8.844879],[121.646819,-8.844893],[121.646772,-8.84491],[121.646727,-8.844929],[121.646682,-8.844951],[121.646639,-8.844977],[121.646598,-8.845004],[121.646559,-8.845035],[121.646521,-8.845067],[121.646486,-8.845102],[121.646453,-8.845139],[121.646422,-8.845178],[121.646394,-8.845219],[121.646369,-8.845261],[121.646346,-8.845305],[121.646326,-8.84535],[121.64631,-8.845397],[121.646296,-8.845444],[121.646285,-8.845492],[121.646277,-8.845541],[121.646272,-8.84559],[121.646271,-8.845639],[121.646272,-8.845688],[121.646277,-8.845737],[121.646285,-8.845786],[121.646296,-8.845834],[121.64631,-8.845882],[121.646326,-8.845928],[121.646346,-8.845973],[121.646369,-8.846017],[121.646394,-8.84606],[121.646422,-8.8461],[121.646453,-8.846139],[121.646486,-8.846176],[121.646521,-8.846211],[121.646559,-8.846244],[121.646598,-8.846274],[121.646639,-8.846302],[121.646682,-8.846327],[121.646727,-8.846349],[121.646772,-8.846369],[121.646819,-8.846385],[121.646867,-8.846399],[121.646916,-8.84641],[121.646965,-8.846418],[121.647015,-8.846422],[121.647065,-8.846424],[121.647115,-8.846422],[121.647164,-8.846418],[121.647214,-8.84641],[121.647262,-8.846399],[121.64731,-8.846385],[121.647357,-8.846369],[121.647403,-8.846349],[121.647447,-8.846327],[121.64749,-8.846302],[121.647532,-8.846274],[121.647571,-8.846244],[121.647608,-8.846211],[121.647644,-8.846176],[121.647677,-8.846139],[121.647707,-8.8461],[121.647735,-8.84606],[121.647761,-8.846017],[121.647783,-8.845973],[121.647803,-8.845928],[121.64782,-8.845882],[121.647834,-8.845834],[121.647845,-8.845786],[121.647853,-8.845737],[121.647859,-8.845639]]]}},{"type":"Feature","properties":{"@circle":{"type":"Mercator","center":[121.6417977,-8.8374184]},"Name":"Macet"},"geometry":{"type":"Polygon","coordinates":[[[121.642795,-8.837418],[121.642794,-8.837356],[121.642788,-8.837295],[121.642778,-8.837234],[121.642764,-8.837173],[121.642747,-8.837114],[121.642725,-8.837055],[121.642701,-8.836999],[121.642672,-8.836943],[121.64264,-8.83689],[121.642605,-8.836839],[121.642566,-8.83679],[121.642525,-8.836743],[121.642481,-8.8367],[121.642434,-8.836659],[121.642384,-8.836621],[121.642332,-8.836586],[121.642278,-8.836554],[121.642223,-8.836526],[121.642165,-8.836502],[121.642106,-8.836481],[121.642046,-8.836463],[121.641985,-8.83645],[121.641923,-8.83644],[121.64186,-8.836434],[121.641798,-8.836432],[121.641735,-8.836434],[121.641673,-8.83644],[121.641611,-8.83645],[121.64155,-8.836463],[121.641489,-8.836481],[121.64143,-8.836502],[121.641373,-8.836526],[121.641317,-8.836554],[121.641263,-8.836586],[121.641211,-8.836621],[121.641162,-8.836659],[121.641115,-8.8367],[121.64107,-8.836743],[121.641029,-8.83679],[121.64099,-8.836839],[121.640955,-8.83689],[121.640923,-8.836943],[121.640895,-8.836999],[121.64087,-8.837055],[121.640849,-8.837114],[121.640831,-8.837173],[121.640818,-8.837234],[121.640808,-8.837295],[121.640802,-8.837356],[121.6408,-8.837418],[121.640802,-8.83748],[121.640808,-8.837542],[121.640818,-8.837603],[121.640831,-8.837664],[121.640849,-8.837723],[121.64087,-8.837781],[121.640895,-8.837838],[121.640923,-8.837893],[121.640955,-8.837947],[121.64099,-8.837998],[121.641029,-8.838047],[121.64107,-8.838093],[121.641115,-8.838137],[121.641162,-8.838178],[121.641211,-8.838216],[121.641263,-8.838251],[121.641317,-8.838282],[121.641373,-8.83831],[121.64143,-8.838335],[121.641489,-8.838356],[121.64155,-8.838373],[121.641611,-8.838387],[121.641673,-8.838397],[121.641735,-8.838402],[121.641798,-8.838404],[121.64186,-8.838402],[121.641923,-8.838397],[121.641985,-8.838387],[121.642046,-8.838373],[121.642106,-8.838356],[121.642165,-8.838335],[121.642223,-8.83831],[121.642278,-8.838282],[121.642332,-8.838251],[121.642384,-8.838216],[121.642434,-8.838178],[121.642481,-8.838137],[121.642525,-8.838093],[121.642566,-8.838047],[121.642605,-8.837998],[121.64264,-8.837947],[121.642672,-8.837893],[121.642701,-8.837838],[121.642725,-8.837781],[121.642747,-8.837723],[121.642764,-8.837664],[121.642778,-8.837603],[121.642788,-8.837542],[121.642795,-8.837418]]]}},{"type":"Feature","properties":{"@circle":{"type":"Mercator","center":[121.6371793,-8.8356155]},"Name":"macet"},"geometry":{"type":"Polygon","coordinates":[[[121.638265,-8.835615],[121.638263,-8.835548],[121.638256,-8.835481],[121.638246,-8.835414],[121.638231,-8.835349],[121.638212,-8.835284],[121.638189,-8.835221],[121.638162,-8.835159],[121.638131,-8.835099],[121.638096,-8.835041],[121.638058,-8.834985],[121.638016,-8.834932],[121.637971,-8.834881],[121.637922,-8.834834],[121.637871,-8.834789],[121.637817,-8.834748],[121.637761,-8.83471],[121.637702,-8.834675],[121.637642,-8.834645],[121.637579,-8.834618],[121.637515,-8.834595],[121.637449,-8.834576],[121.637383,-8.834562],[121.637315,-8.834551],[121.637247,-8.834545],[121.637179,-8.834543],[121.637111,-8.834545],[121.637043,-8.834551],[121.636976,-8.834562],[121.636909,-8.834576],[121.636844,-8.834595],[121.63678,-8.834618],[121.636717,-8.834645],[121.636656,-8.834675],[121.636598,-8.83471],[121.636541,-8.834748],[121.636487,-8.834789],[121.636436,-8.834834],[121.636388,-8.834881],[121.636343,-8.834932],[121.636301,-8.834985],[121.636263,-8.835041],[121.636228,-8.835099],[121.636197,-8.835159],[121.63617,-8.835221],[121.636147,-8.835284],[121.636128,-8.835349],[121.636113,-8.835414],[121.636102,-8.835481],[121.636096,-8.835548],[121.636094,-8.835615],[121.636096,-8.835683],[121.636102,-8.83575],[121.636113,-8.835816],[121.636128,-8.835882],[121.636147,-8.835947],[121.63617,-8.83601],[121.636197,-8.836072],[121.636228,-8.836132],[121.636263,-8.83619],[121.636301,-8.836246],[121.636343,-8.836299],[121.636388,-8.83635],[121.636436,-8.836397],[121.636487,-8.836442],[121.636541,-8.836483],[121.636598,-8.836521],[121.636656,-8.836555],[121.636717,-8.836586],[121.63678,-8.836613],[121.636844,-8.836636],[121.636909,-8.836654],[121.636976,-8.836669],[121.637043,-8.83668],[121.637111,-8.836686],[121.637179,-8.836688],[121.637247,-8.836686],[121.637315,-8.83668],[121.637383,-8.836669],[121.637449,-8.836654],[121.637515,-8.836636],[121.637579,-8.836613],[121.637642,-8.836586],[121.637702,-8.836555],[121.637761,-8.836521],[121.637817,-8.836483],[121.637871,-8.836442],[121.637922,-8.836397],[121.637971,-8.83635],[121.638016,-8.836299],[121.638058,-8.836246],[121.638096,-8.83619],[121.638131,-8.836132],[121.638162,-8.836072],[121.638189,-8.83601],[121.638212,-8.835947],[121.638231,-8.835882],[121.638246,-8.835816],[121.638256,-8.83575],[121.638265,-8.835615]]]}},{"type":"Feature","properties":{"@circle":{"type":"Mercator","center":[121.6436262,-8.8409446]},"Name":"Macet"},"geometry":{"type":"Polygon","coordinates":[[[121.644608,-8.840945],[121.644606,-8.840884],[121.6446,-8.840823],[121.644591,-8.840763],[121.644577,-8.840703],[121.64456,-8.840645],[121.644539,-8.840587],[121.644515,-8.840532],[121.644487,-8.840477],[121.644455,-8.840425],[121.64442,-8.840374],[121.644383,-8.840326],[121.644342,-8.840281],[121.644298,-8.840237],[121.644252,-8.840197],[121.644203,-8.84016],[121.644152,-8.840126],[121.644099,-8.840094],[121.644044,-8.840067],[121.643988,-8.840043],[121.64393,-8.840022],[121.64387,-8.840005],[121.64381,-8.839992],[121.643749,-8.839982],[121.643688,-8.839976],[121.643626,-8.839974],[121.643565,-8.839976],[121.643503,-8.839982],[121.643442,-8.839992],[121.643382,-8.840005],[121.643323,-8.840022],[121.643265,-8.840043],[121.643208,-8.840067],[121.643153,-8.840094],[121.6431,-8.840126],[121.643049,-8.84016],[121.643,-8.840197],[121.642954,-8.840237],[121.64291,-8.840281],[121.64287,-8.840326],[121.642832,-8.840374],[121.642797,-8.840425],[121.642766,-8.840477],[121.642738,-8.840532],[121.642713,-8.840587],[121.642692,-8.840645],[121.642675,-8.840703],[121.642662,-8.840763],[121.642652,-8.840823],[121.642646,-8.840884],[121.642644,-8.840945],[121.642646,-8.841006],[121.642652,-8.841066],[121.642662,-8.841126],[121.642675,-8.841186],[121.642692,-8.841244],[121.642713,-8.841302],[121.642738,-8.841358],[121.642766,-8.841412],[121.642797,-8.841464],[121.642832,-8.841515],[121.64287,-8.841563],[121.64291,-8.841609],[121.642954,-8.841652],[121.643,-8.841692],[121.643049,-8.841729],[121.6431,-8.841764],[121.643153,-8.841795],[121.643208,-8.841822],[121.643265,-8.841847],[121.643323,-8.841867],[121.643382,-8.841884],[121.643442,-8.841898],[121.643503,-8.841907],[121.643565,-8.841913],[121.643626,-8.841915],[121.643688,-8.841913],[121.643749,-8.841907],[121.64381,-8.841898],[121.64387,-8.841884],[121.64393,-8.841867],[121.643988,-8.841847],[121.644044,-8.841822],[121.644099,-8.841795],[121.644152,-8.841764],[121.644203,-8.841729],[121.644252,-8.841692],[121.644298,-8.841652],[121.644342,-8.841609],[121.644383,-8.841563],[121.64442,-8.841515],[121.644455,-8.841464],[121.644487,-8.841412],[121.644515,-8.841358],[121.644539,-8.841302],[121.64456,-8.841244],[121.644577,-8.841186],[121.644591,-8.841126],[121.6446,-8.841066],[121.644608,-8.840945]]]}}]}