{"type":"FeatureCollection","features":[{"type":"Feature","properties":{"Id":0,"Name":"Rumah","Type":0,"Description":"Rumah tinggal","marker-color":"rgba(255, 0, 0, 1)","marker-size":"medium"},"geometry":{"type":"Point","coordinates":[121.641401,-8.855028]}},{"type":"Feature","properties":{"Name":"Sekolah SD","marker-color":"rgba(255, 0, 0, 1)","marker-size":"medium"},"geometry":{"type":"Point","coordinates":[121.64274,-8.854381]}},{"type":"Feature","properties":{"Name":"Kantor","marker-color":"rgba(255, 85, 0, 1)","marker-size":"medium"},"geometry":{"type":"Point","coordinates":[121.665058,-8.842665]}}]}