{"type":"FeatureCollection","features":[{"type":"Feature","properties":{"Name":"Pasar","Description":"pasar","marker-color":"#312E81","marker-size":"medium"},"geometry":{"type":"Point","coordinates":[121.643722,-8.847909]}},{"type":"Feature","properties":{"Name":"Ruang Publik","Description":"lapangan dll","fill":"rgba(39, 226, 29, 1)"},"geometry":{"type":"Polygon","coordinates":[[[121.643881,-8.845814],[121.645451,-8.845434],[121.644807,-8.841773],[121.643079,-8.842555],[121.643045,-8.842543],[121.643881,-8.845814]]]}},{"type":"Feature","properties":{"Name":"Gereja","marker-color":"#312E81","marker-size":"medium"},"geometry":{"type":"Point","coordinates":[121.646139,-8.845173]}},{"type":"Feature","properties":{"Name":"Kodam","marker-color":"#312E81","marker-size":"medium"},"geometry":{"type":"Point","coordinates":[121.657047,-8.837242]}},{"type":"Feature","properties":{"Name":"Pasar","marker-color":"#312E81","marker-size":"medium"},"geometry":{"type":"Point","coordinates":[121.677594,-8.833273]}}]}