{"type":"FeatureCollection","features":[{"type":"Feature","properties":{"@circle":{"type":"Mercator","center":[121.6771142,-8.8366504]},"Name":"Publik Evak"},"geometry":{"type":"Polygon","coordinates":[[[121.679152,-8.83665],[121.679148,-8.836524],[121.679136,-8.836398],[121.679116,-8.836273],[121.679088,-8.83615],[121.679052,-8.836028],[121.679009,-8.835909],[121.678958,-8.835793],[121.6789,-8.83568],[121.678835,-8.835572],[121.678763,-8.835467],[121.678684,-8.835367],[121.6786,-8.835272],[121.678509,-8.835183],[121.678413,-8.835099],[121.678312,-8.835021],[121.678206,-8.83495],[121.678096,-8.834886],[121.677982,-8.834829],[121.677864,-8.834778],[121.677744,-8.834735],[121.677621,-8.8347],[121.677496,-8.834673],[121.67737,-8.834653],[121.677242,-8.834641],[121.677114,-8.834637],[121.676986,-8.834641],[121.676859,-8.834653],[121.676732,-8.834673],[121.676607,-8.8347],[121.676484,-8.834735],[121.676364,-8.834778],[121.676247,-8.834829],[121.676132,-8.834886],[121.676022,-8.83495],[121.675916,-8.835021],[121.675815,-8.835099],[121.675719,-8.835183],[121.675629,-8.835272],[121.675544,-8.835367],[121.675466,-8.835467],[121.675394,-8.835572],[121.675329,-8.83568],[121.67527,-8.835793],[121.67522,-8.835909],[121.675176,-8.836028],[121.67514,-8.83615],[121.675113,-8.836273],[121.675093,-8.836398],[121.67508,-8.836524],[121.675076,-8.83665],[121.67508,-8.836777],[121.675093,-8.836903],[121.675113,-8.837028],[121.67514,-8.837151],[121.675176,-8.837273],[121.67522,-8.837392],[121.67527,-8.837508],[121.675329,-8.83762],[121.675394,-8.837729],[121.675466,-8.837834],[121.675544,-8.837934],[121.675629,-8.838029],[121.675719,-8.838118],[121.675815,-8.838202],[121.675916,-8.838279],[121.676022,-8.838351],[121.676132,-8.838415],[121.676247,-8.838472],[121.676364,-8.838523],[121.676484,-8.838565],[121.676607,-8.838601],[121.676732,-8.838628],[121.676859,-8.838648],[121.676986,-8.83866],[121.677114,-8.838664],[121.677242,-8.83866],[121.67737,-8.838648],[121.677496,-8.838628],[121.677621,-8.838601],[121.677744,-8.838565],[121.677864,-8.838523],[121.677982,-8.838472],[121.678096,-8.838415],[121.678206,-8.838351],[121.678312,-8.838279],[121.678413,-8.838202],[121.678509,-8.838118],[121.6786,-8.838029],[121.678684,-8.837934],[121.678763,-8.837834],[121.678835,-8.837729],[121.6789,-8.83762],[121.678958,-8.837508],[121.679009,-8.837392],[121.679052,-8.837273],[121.679088,-8.837151],[121.679116,-8.837028],[121.679136,-8.836903],[121.679152,-8.83665]]]}}]}