{"type":"FeatureCollection","features":[{"type":"Feature","properties":{"@circle":{"type":"Mercator","center":[121.6397824,-8.8243455]},"Name":"Rekomendasi Pem Barat","Deskription":"tempat mengungsi"},"geometry":{"type":"Polygon","coordinates":[[[121.646972,-8.824345],[121.646957,-8.823899],[121.646915,-8.823455],[121.646844,-8.823014],[121.646746,-8.822579],[121.64662,-8.82215],[121.646467,-8.82173],[121.646287,-8.821321],[121.646082,-8.820923],[121.645852,-8.820539],[121.645599,-8.82017],[121.645322,-8.819817],[121.645023,-8.819482],[121.644704,-8.819167],[121.644365,-8.818872],[121.644008,-8.818598],[121.643635,-8.818347],[121.643246,-8.81812],[121.642843,-8.817918],[121.642429,-8.81774],[121.642004,-8.817589],[121.64157,-8.817465],[121.64113,-8.817367],[121.640683,-8.817297],[121.640234,-8.817255],[121.639782,-8.817241],[121.639331,-8.817255],[121.638881,-8.817297],[121.638435,-8.817367],[121.637995,-8.817465],[121.637561,-8.817589],[121.637136,-8.81774],[121.636721,-8.817918],[121.636319,-8.81812],[121.63593,-8.818347],[121.635557,-8.818598],[121.6352,-8.818872],[121.634861,-8.819167],[121.634542,-8.819482],[121.634243,-8.819817],[121.633966,-8.82017],[121.633712,-8.820539],[121.633483,-8.820923],[121.633278,-8.821321],[121.633098,-8.82173],[121.632945,-8.82215],[121.632819,-8.822579],[121.632721,-8.823014],[121.63265,-8.823455],[121.632608,-8.823899],[121.632593,-8.824345],[121.632608,-8.824792],[121.63265,-8.825236],[121.632721,-8.825677],[121.632819,-8.826112],[121.632945,-8.826541],[121.633098,-8.826961],[121.633278,-8.82737],[121.633483,-8.827768],[121.633712,-8.828152],[121.633966,-8.828521],[121.634243,-8.828874],[121.634542,-8.829208],[121.634861,-8.829524],[121.6352,-8.829819],[121.635557,-8.830093],[121.63593,-8.830344],[121.636319,-8.830571],[121.636721,-8.830773],[121.637136,-8.830951],[121.637561,-8.831102],[121.637995,-8.831226],[121.638435,-8.831324],[121.638881,-8.831393],[121.639331,-8.831435],[121.639782,-8.831449],[121.640234,-8.831435],[121.640683,-8.831393],[121.64113,-8.831324],[121.64157,-8.831226],[121.642004,-8.831102],[121.642429,-8.830951],[121.642843,-8.830773],[121.643246,-8.830571],[121.643635,-8.830344],[121.644008,-8.830093],[121.644365,-8.829819],[121.644704,-8.829524],[121.645023,-8.829208],[121.645322,-8.828874],[121.645599,-8.828521],[121.645852,-8.828152],[121.646082,-8.827768],[121.646287,-8.82737],[121.646467,-8.826961],[121.64662,-8.826541],[121.646746,-8.826112],[121.646844,-8.825677],[121.646915,-8.825236],[121.646972,-8.824345]]]}},{"type":"Feature","properties":{"@circle":{"type":"Mercator","center":[121.674502,-8.8154165]},"Name":"rekomendasi timur","Deskription":"tempat mengunsi timur"},"geometry":{"type":"Polygon","coordinates":[[[121.679594,-8.815416],[121.679584,-8.815101],[121.679554,-8.814786],[121.679504,-8.814474],[121.679434,-8.814165],[121.679345,-8.813861],[121.679237,-8.813564],[121.67911,-8.813274],[121.678964,-8.812992],[121.678801,-8.81272],[121.678622,-8.812459],[121.678426,-8.812209],[121.678214,-8.811972],[121.677988,-8.811748],[121.677748,-8.811539],[121.677495,-8.811345],[121.677231,-8.811168],[121.676955,-8.811007],[121.67667,-8.810863],[121.676377,-8.810738],[121.676076,-8.810631],[121.675768,-8.810542],[121.675456,-8.810474],[121.67514,-8.810424],[121.674822,-8.810394],[121.674502,-8.810384],[121.674182,-8.810394],[121.673864,-8.810424],[121.673548,-8.810474],[121.673236,-8.810542],[121.672928,-8.810631],[121.672627,-8.810738],[121.672334,-8.810863],[121.672049,-8.811007],[121.671773,-8.811168],[121.671509,-8.811345],[121.671256,-8.811539],[121.671016,-8.811748],[121.67079,-8.811972],[121.670578,-8.812209],[121.670382,-8.812459],[121.670203,-8.81272],[121.67004,-8.812992],[121.669894,-8.813274],[121.669767,-8.813564],[121.669659,-8.813861],[121.66957,-8.814165],[121.6695,-8.814474],[121.66945,-8.814786],[121.66942,-8.815101],[121.66941,-8.815416],[121.66942,-8.815732],[121.66945,-8.816047],[121.6695,-8.816359],[121.66957,-8.816668],[121.669659,-8.816971],[121.669767,-8.817269],[121.669894,-8.817559],[121.67004,-8.817841],[121.670203,-8.818113],[121.670382,-8.818374],[121.670578,-8.818624],[121.67079,-8.818861],[121.671016,-8.819085],[121.671256,-8.819294],[121.671509,-8.819487],[121.671773,-8.819665],[121.672049,-8.819826],[121.672334,-8.81997],[121.672627,-8.820095],[121.672928,-8.820202],[121.673236,-8.82029],[121.673548,-8.820359],[121.673864,-8.820409],[121.674182,-8.820439],[121.674502,-8.820448],[121.674822,-8.820439],[121.67514,-8.820409],[121.675456,-8.820359],[121.675768,-8.82029],[121.676076,-8.820202],[121.676377,-8.820095],[121.67667,-8.81997],[121.676955,-8.819826],[121.677231,-8.819665],[121.677495,-8.819487],[121.677748,-8.819294],[121.677988,-8.819085],[121.678214,-8.818861],[121.678426,-8.818624],[121.678622,-8.818374],[121.678801,-8.818113],[121.678964,-8.817841],[121.67911,-8.817559],[121.679237,-8.817269],[121.679345,-8.816971],[121.679434,-8.816668],[121.679504,-8.816359],[121.679554,-8.816047],[121.679594,-8.815416]]]}}]}