{"type":"FeatureCollection","features":[{"type":"Feature","properties":{"Name":"Jalur Evakuasi 1","Description":"Jalur evakuasi rumah ke titik aman pertama","stroke":"rgba(255, 0, 0, 1)","stroke-opacity":1,"stroke-width":1},"geometry":{"type":"LineString","coordinates":[[121.641333,-8.855017],[121.641283,-8.855118],[121.643471,-8.856296],[121.643833,-8.85468],[121.64422,-8.852325],[121.644576,-8.850225],[121.644923,-8.848564],[121.645118,-8.846982],[121.644896,-8.845734],[121.64615,-8.845435],[121.647306,-8.845953],[121.648489,-8.843396],[121.64856,-8.843071],[121.648996,-8.842895],[121.649477,-8.842956],[121.649975,-8.842076],[121.650159,-8.840971],[121.650093,-8.84012],[121.651186,-8.839224],[121.652325,-8.838371],[121.65339,-8.838417],[121.655081,-8.838081],[121.657283,-8.837804],[121.658524,-8.837444],[121.659424,-8.836939],[121.660604,-8.835989],[121.662015,-8.835508],[121.663864,-8.835112],[121.665981,-8.834403],[121.668222,-8.833865]]}},{"type":"Feature","properties":{"Name":"Jalur Evakuasi 2","Description":"Dari titik aman 1 ke titik aman 2","stroke":"rgba(255, 0, 0, 1)","stroke-opacity":1,"stroke-width":1},"geometry":{"type":"LineString","coordinates":[[121.668224,-8.833862],[121.670652,-8.833022],[121.671991,-8.832443],[121.67217,-8.832859],[121.672489,-8.833483],[121.672885,-8.833471],[121.673637,-8.832891],[121.674709,-8.832487],[121.676432,-8.832714],[121.677554,-8.833471],[121.677963,-8.83342],[121.679236,-8.823029],[121.67862,-8.821265],[121.677451,-8.820902],[121.675984,-8.819713],[121.675804,-8.817504],[121.674266,-8.814906],[121.673721,-8.813501],[121.673034,-8.811993],[121.671823,-8.810838],[121.671823,-8.810838],[121.671823,-8.810838]]}},{"type":"Feature","properties":{"stroke":"rgba(255, 0, 0, 1)","stroke-opacity":1,"stroke-width":1,"Name":"Jalur Evakuasi 2","Description":"Jalur evakuasi kantor ke titik pertama aman"},"geometry":{"type":"LineString","coordinates":[[121.665151,-8.842552],[121.664689,-8.840508],[121.664647,-8.838767],[121.663919,-8.838535],[121.663473,-8.838373],[121.663802,-8.836089],[121.663989,-8.83508],[121.665915,-8.834406],[121.668168,-8.83385],[121.668109,-8.83385]]}}]}