{"type":"FeatureCollection","features":[{"type":"Feature","properties":{"Name":"Jalur Evakuasi Alternatif 1 ","Description":"Jalur evakuasi dari rumah menuju titik alternati aman pertama","stroke":"rgba(255, 0, 136, 1)","stroke-opacity":1,"stroke-width":1},"geometry":{"type":"LineString","coordinates":[[121.641277,-8.855115],[121.643539,-8.856315],[121.644223,-8.852345],[121.644907,-8.848703],[121.645117,-8.847013],[121.644852,-8.845683],[121.643782,-8.841441],[121.643064,-8.839128],[121.642491,-8.838146],[121.641994,-8.837503],[121.641762,-8.837383],[121.641089,-8.837667],[121.640714,-8.837732],[121.639842,-8.837459],[121.639081,-8.836887],[121.637867,-8.836386],[121.636598,-8.835044],[121.634665,-8.833548],[121.632294,-8.832405],[121.63027,-8.831634],[121.628984,-8.831248],[121.628998,-8.831263]]}},{"type":"Feature","properties":{"Name":"Jalur Evakuasi Alternatif 2","Description":"Jalur Evakuasi Alternatif dari titk aman alterantif 1 ke titik aman alternatif 2","stroke":"#ba255013","stroke-opacity":1,"stroke-width":1},"geometry":{"type":"LineString","coordinates":[[121.628926,-8.831277],[121.626591,-8.830686],[121.625413,-8.830514],[121.624024,-8.829599],[121.619508,-8.829179],[121.615166,-8.827463],[121.61314,-8.826853],[121.610747,-8.826014],[121.605537,-8.822658],[121.603217,-8.82006],[121.601693,-8.817124],[121.599562,-8.815419],[121.597517,-8.81395],[121.596513,-8.812406],[121.595741,-8.809927],[121.594967,-8.807512],[121.593327,-8.8057],[121.5924,-8.803202],[121.591976,-8.800761],[121.590393,-8.799369],[121.588893,-8.800884],[121.585631,-8.801145],[121.57805,-8.799206],[121.572164,-8.797529],[121.567719,-8.795332],[121.565376,-8.795462],[121.564464,-8.798044],[121.561344,-8.798042],[121.559242,-8.799721],[121.55522,-8.800619],[121.549061,-8.801527],[121.541158,-8.804352],[121.53419,-8.805008],[121.530561,-8.806579],[121.519514,-8.804235],[121.516384,-8.805147],[121.515204,-8.803593],[121.511151,-8.80502],[121.509188,-8.803465],[121.50906,-8.801261],[121.504885,-8.799583],[121.501351,-8.80178],[121.496752,-8.802305],[121.494949,-8.799198],[121.491532,-8.799458],[121.483432,-8.798295],[121.471097,-8.797648],[121.468881,-8.796614],[121.471104,-8.795579],[121.471259,-8.79222],[121.471131,-8.792091],[121.471131,-8.792091]]}}]}