{"type":"FeatureCollection","features":[{"type":"Feature","properties":{"Name":"Titik Aman 1","Description":"Rumah Sakit","marker-color":"rgba(13, 255, 0, 1)","marker-size":"medium"},"geometry":{"type":"Point","coordinates":[121.66821,-8.833827]}},{"type":"Feature","properties":{"Name":"Titik Aman 2","Description":"Terminal","marker-color":"rgba(31, 255, 1, 1)","marker-size":"medium"},"geometry":{"type":"Point","coordinates":[121.672161,-8.810675]}},{"type":"Feature","properties":{"Name":"Titik Aman Alter 2","marker-color":"rgba(52, 166, 0, 1)","marker-size":"medium","Description":"Keluarga"},"geometry":{"type":"Point","coordinates":[121.47152,-8.79192]}},{"type":"Feature","properties":{"Name":"Titik Aman Alter 1","Description":"Pantai Nanga","marker-color":"rgba(63, 175, 3, 1)","marker-size":"medium"},"geometry":{"type":"Point","coordinates":[121.628938,-8.831293]}},{"type":"Feature","properties":{"Name":"Titik Aman Alternati 1","Description":"rumah teman","marker-color":"rgba(202, 244, 135, 1)","marker-size":"medium"},"geometry":{"type":"Point","coordinates":[121.661641,-8.836779]}}]}