{"type":"FeatureCollection","features":[{"type":"Feature","geometry":{"type":"Point","coordinates":[121.66821,-8.833827]},"properties":{"Name":"Titik Aman 1","Description":"Rumah Sakit","marker-color":"rgba(13, 255, 0, 1)","marker-size":"medium"}},{"type":"Feature","geometry":{"type":"Point","coordinates":[121.672161,-8.810675]},"properties":{"Name":"Titik Aman 2","Description":"Terminal","marker-color":"rgba(31, 255, 1, 1)","marker-size":"medium"}},{"type":"Feature","geometry":{"type":"Point","coordinates":[121.661641,-8.836779]},"properties":{"Name":"Titik Aman Alternati 1","Description":"rumah teman","marker-color":"rgba(202, 244, 135, 1)","marker-size":"medium"}},{"type":"Feature","properties":{"@circle":{"type":"Mercator","center":[121.6502603,-8.8399308]},"Name":"Jalan Sempit"},"geometry":{"type":"Polygon","coordinates":[[[121.650875,-8.839931],[121.650874,-8.839893],[121.65087,-8.839855],[121.650864,-8.839817],[121.650856,-8.83978],[121.650845,-8.839743],[121.650832,-8.839707],[121.650816,-8.839672],[121.650799,-8.839638],[121.650779,-8.839605],[121.650758,-8.839574],[121.650734,-8.839544],[121.650708,-8.839515],[121.650681,-8.839488],[121.650652,-8.839463],[121.650622,-8.839439],[121.65059,-8.839418],[121.650556,-8.839398],[121.650522,-8.839381],[121.650487,-8.839366],[121.65045,-8.839353],[121.650413,-8.839342],[121.650375,-8.839334],[121.650337,-8.839328],[121.650299,-8.839325],[121.65026,-8.839323],[121.650222,-8.839325],[121.650183,-8.839328],[121.650145,-8.839334],[121.650107,-8.839342],[121.65007,-8.839353],[121.650034,-8.839366],[121.649999,-8.839381],[121.649964,-8.839398],[121.649931,-8.839418],[121.649899,-8.839439],[121.649868,-8.839463],[121.649839,-8.839488],[121.649812,-8.839515],[121.649787,-8.839544],[121.649763,-8.839574],[121.649741,-8.839605],[121.649722,-8.839638],[121.649704,-8.839672],[121.649689,-8.839707],[121.649676,-8.839743],[121.649665,-8.83978],[121.649656,-8.839817],[121.64965,-8.839855],[121.649647,-8.839893],[121.649646,-8.839931],[121.649647,-8.839969],[121.64965,-8.840007],[121.649656,-8.840045],[121.649665,-8.840082],[121.649676,-8.840118],[121.649689,-8.840154],[121.649704,-8.840189],[121.649722,-8.840223],[121.649741,-8.840256],[121.649763,-8.840288],[121.649787,-8.840318],[121.649812,-8.840347],[121.649839,-8.840374],[121.649868,-8.840399],[121.649899,-8.840422],[121.649931,-8.840444],[121.649964,-8.840463],[121.649999,-8.84048],[121.650034,-8.840496],[121.65007,-8.840508],[121.650107,-8.840519],[121.650145,-8.840527],[121.650183,-8.840533],[121.650222,-8.840537],[121.65026,-8.840538],[121.650299,-8.840537],[121.650337,-8.840533],[121.650375,-8.840527],[121.650413,-8.840519],[121.65045,-8.840508],[121.650487,-8.840496],[121.650522,-8.84048],[121.650556,-8.840463],[121.65059,-8.840444],[121.650622,-8.840422],[121.650652,-8.840399],[121.650681,-8.840374],[121.650708,-8.840347],[121.650734,-8.840318],[121.650758,-8.840288],[121.650779,-8.840256],[121.650799,-8.840223],[121.650816,-8.840189],[121.650832,-8.840154],[121.650845,-8.840118],[121.650856,-8.840082],[121.650864,-8.840045],[121.65087,-8.840007],[121.650875,-8.839931]]]}}]}